start=new Date('2022-03-11T00:00:00.000Z').valueOf();
sats=[{"REV_AT_EPOCH":"7711","BSTAR":"0.00011335000000","TIME_SYSTEM":"UTC","ELEMENT_SET_NO":"999","DECAY_DATE":null,"SEMIMAJOR_AXIS":"6925.368","TLE_LINE2":"2 46674  53.0560 314.6441 0001578  63.3221 296.7930 15.06393688 77110","MEAN_MOTION_DOT":"0.00001407","INCLINATION":"53.0560","CENTER_NAME":"EARTH","OBJECT_TYPE":"PAYLOAD","OBJECT_NAME":"STARLINK-1718","ECCENTRICITY":"0.00015780","ARG_OF_PERICENTER":"63.3221","GP_ID":"198438820","SITE":"AFETR","LAUNCH_DATE":"2020-10-18","RA_OF_ASC_NODE":"314.6441","MEAN_ELEMENT_THEORY":"SGP4","OBJECT_ID":"2020-073E","CLASSIFICATION_TYPE":"U","PERIAPSIS":"546.140","REF_FRAME":"TEME","APOAPSIS":"548.326","NORAD_CAT_ID":"46674","EPHEMERIS_TYPE":"0","COUNTRY_CODE":"US","MEAN_ANOMALY":"296.7930","PERIOD":"95.593","RCS_SIZE":"LARGE","EPOCH":"2022-03-10T22:50:36.330432","MEAN_MOTION_DDOT":"0.0000000000000","TLE_LINE1":"1 46674U 20073E   22069.95180938  .00001407  00000-0  11335-3 0  9999","FILE":"3354091","MEAN_MOTION":"15.06393688"},{"FILE":"3354091","MEAN_MOTION":"15.06408745","RCS_SIZE":"LARGE","PERIOD":"95.592","MEAN_MOTION_DDOT":"0.0000000000000","EPOCH":"2022-03-10T22:45:19.078272","TLE_LINE1":"1 46675U 20073F   22069.94813748  .00007691  00000-0  53453-3 0  9999","MEAN_ANOMALY":"298.4775","COUNTRY_CODE":"US","EPHEMERIS_TYPE":"0","APOAPSIS":"548.422","NORAD_CAT_ID":"46675","REF_FRAME":"TEME","PERIAPSIS":"545.951","CLASSIFICATION_TYPE":"U","OBJECT_ID":"2020-073F","MEAN_ELEMENT_THEORY":"SGP4","LAUNCH_DATE":"2020-10-18","RA_OF_ASC_NODE":"314.6645","GP_ID":"198437576","SITE":"AFETR","ECCENTRICITY":"0.00017840","ARG_OF_PERICENTER":"61.6394","OBJECT_NAME":"STARLINK-1720","CENTER_NAME":"EARTH","OBJECT_TYPE":"PAYLOAD","INCLINATION":"53.0548","MEAN_MOTION_DOT":"0.00007691","TLE_LINE2":"2 46675  53.0548 314.6645 0001784  61.6394 298.4775 15.06408745 77111","DECAY_DATE":null,"SEMIMAJOR_AXIS":"6925.322","TIME_SYSTEM":"UTC","ELEMENT_SET_NO":"999","REV_AT_EPOCH":"7711","BSTAR":"0.00053453000000"},{"TIME_SYSTEM":"UTC","ELEMENT_SET_NO":"999","REV_AT_EPOCH":"7711","BSTAR":"0.00019973000000","TLE_LINE2":"2 46677  53.0544 314.6712 0001774  56.4835 303.6323 15.06398314 77113","DECAY_DATE":null,"SEMIMAJOR_AXIS":"6925.354","MEAN_MOTION_DOT":"0.00002694","CENTER_NAME":"EARTH","OBJECT_TYPE":"PAYLOAD","INCLINATION":"53.0544","ECCENTRICITY":"0.00017740","ARG_OF_PERICENTER":"56.4835","OBJECT_NAME":"STARLINK-1766","GP_ID":"198437826","SITE":"AFETR","MEAN_ELEMENT_THEORY":"SGP4","LAUNCH_DATE":"2020-10-18","RA_OF_ASC_NODE":"314.6712","CLASSIFICATION_TYPE":"U","OBJECT_ID":"2020-073H","PERIAPSIS":"545.990","REF_FRAME":"TEME","EPHEMERIS_TYPE":"0","APOAPSIS":"548.447","NORAD_CAT_ID":"46677","MEAN_ANOMALY":"303.6323","COUNTRY_CODE":"US","FILE":"3354091","MEAN_MOTION":"15.06398314","EPOCH":"2022-03-10T22:39:59.072544","RCS_SIZE":"LARGE","PERIOD":"95.592","MEAN_MOTION_DDOT":"0.0000000000000","TLE_LINE1":"1 46677U 20073H   22069.94443371  .00002694  00000-0  19973-3 0  9999"},{"TLE_LINE1":"1 46679U 20073K   22069.88363178  .00002766  00000-0  20454-3 0  9996","RCS_SIZE":"LARGE","MEAN_MOTION_DDOT":"0.0000000000000","PERIOD":"95.592","EPOCH":"2022-03-10T21:12:25.785792","FILE":"3354091","MEAN_MOTION":"15.06397225","COUNTRY_CODE":"US","MEAN_ANOMALY":"295.2732","NORAD_CAT_ID":"46679","APOAPSIS":"548.325","EPHEMERIS_TYPE":"0","REF_FRAME":"TEME","PERIAPSIS":"546.120","CLASSIFICATION_TYPE":"U","OBJECT_ID":"2020-073K","RA_OF_ASC_NODE":"294.9424","LAUNCH_DATE":"2020-10-18","MEAN_ELEMENT_THEORY":"SGP4","SITE":"AFETR","GP_ID":"198438574","OBJECT_NAME":"STARLINK-1773","ARG_OF_PERICENTER":"64.8422","ECCENTRICITY":"0.00015920","INCLINATION":"53.0566","OBJECT_TYPE":"PAYLOAD","CENTER_NAME":"EARTH","MEAN_MOTION_DOT":"0.00002766","SEMIMAJOR_AXIS":"6925.357","DECAY_DATE":null,"TLE_LINE2":"2 46679  53.0566 294.9424 0001592  64.8422 295.2732 15.06397225 77381","BSTAR":"0.00020454000000","REV_AT_EPOCH":"7738","ELEMENT_SET_NO":"999","TIME_SYSTEM":"UTC"},{"MEAN_MOTION_DOT":"0.00000099","CENTER_NAME":"EARTH","OBJECT_TYPE":"PAYLOAD","INCLINATION":"53.0568","TIME_SYSTEM":"UTC","ELEMENT_SET_NO":"999","REV_AT_EPOCH":"7689","BSTAR":"0.00002552500000","TLE_LINE2":"2 46680  53.0568 329.9297 0001784  57.2242 302.8919 15.06394640 76896","DECAY_DATE":null,"SEMIMAJOR_AXIS":"6925.365","MEAN_ELEMENT_THEORY":"SGP4","LAUNCH_DATE":"2020-10-18","RA_OF_ASC_NODE":"329.9297","OBJECT_ID":"2020-073L","CLASSIFICATION_TYPE":"U","ECCENTRICITY":"0.00017840","ARG_OF_PERICENTER":"57.2242","OBJECT_NAME":"STARLINK-1774","GP_ID":"198438321","SITE":"AFETR","REF_FRAME":"TEME","EPHEMERIS_TYPE":"0","APOAPSIS":"548.465","NORAD_CAT_ID":"46680","PERIAPSIS":"545.995","MEAN_ANOMALY":"302.8919","COUNTRY_CODE":"US","FILE":"3354091","MEAN_MOTION":"15.06394640","RCS_SIZE":"LARGE","EPOCH":"2022-03-10T21:15:44.020224","PERIOD":"95.592","MEAN_MOTION_DDOT":"0.0000000000000","TLE_LINE1":"1 46680U 20073L   22069.88592616  .00000099  00000-0  25525-4 0  9991"},{"ELEMENT_SET_NO":"999","TIME_SYSTEM":"UTC","BSTAR":"0.00018511000000","REV_AT_EPOCH":"7688","TLE_LINE2":"2 46681  53.0556 330.0673 0001795  57.7590 302.3573 15.06398325 76882","SEMIMAJOR_AXIS":"6925.354","DECAY_DATE":null,"MEAN_MOTION_DOT":"0.00002477","OBJECT_TYPE":"PAYLOAD","CENTER_NAME":"EARTH","INCLINATION":"53.0556","ARG_OF_PERICENTER":"57.7590","ECCENTRICITY":"0.00017950","OBJECT_NAME":"STARLINK-1775","SITE":"AFETR","GP_ID":"198437077","MEAN_ELEMENT_THEORY":"SGP4","RA_OF_ASC_NODE":"330.0673","LAUNCH_DATE":"2020-10-18","OBJECT_ID":"2020-073M","CLASSIFICATION_TYPE":"U","PERIAPSIS":"545.976","REF_FRAME":"TEME","EPHEMERIS_TYPE":"0","NORAD_CAT_ID":"46681","APOAPSIS":"548.462","MEAN_ANOMALY":"302.3573","COUNTRY_CODE":"US","MEAN_MOTION":"15.06398325","FILE":"3354091","TLE_LINE1":"1 46681U 20073M   22069.85643720  .00002477  00000-0  18511-3 0  9990","RCS_SIZE":"LARGE","PERIOD":"95.592","EPOCH":"2022-03-10T20:33:16.174080","MEAN_MOTION_DDOT":"0.0000000000000"},{"LAUNCH_DATE":"2020-10-18","RA_OF_ASC_NODE":"329.9354","MEAN_ELEMENT_THEORY":"SGP4","CLASSIFICATION_TYPE":"U","OBJECT_ID":"2020-073N","OBJECT_NAME":"STARLINK-1776","ECCENTRICITY":"0.00018010","ARG_OF_PERICENTER":"57.9826","GP_ID":"198437327","SITE":"AFETR","MEAN_MOTION_DOT":"0.00000674","INCLINATION":"53.0551","CENTER_NAME":"EARTH","OBJECT_TYPE":"PAYLOAD","REV_AT_EPOCH":"7689","BSTAR":"0.00006413500000","TIME_SYSTEM":"UTC","ELEMENT_SET_NO":"999","DECAY_DATE":null,"SEMIMAJOR_AXIS":"6925.375","TLE_LINE2":"2 46682  53.0551 329.9354 0001801  57.9826 302.1337 15.06391264 76895","COUNTRY_CODE":"US","MEAN_ANOMALY":"302.1337","PERIOD":"95.593","RCS_SIZE":"LARGE","EPOCH":"2022-03-10T21:10:26.381856","MEAN_MOTION_DDOT":"0.0000000000000","TLE_LINE1":"1 46682U 20073N   22069.88224979  .00000674  00000-0  64135-4 0  9996","FILE":"3354091","MEAN_MOTION":"15.06391264","REF_FRAME":"TEME","APOAPSIS":"548.488","NORAD_CAT_ID":"46682","EPHEMERIS_TYPE":"0","PERIAPSIS":"545.993"},{"SITE":"AFETR","GP_ID":"198438075","ARG_OF_PERICENTER":"52.4245","ECCENTRICITY":"0.00016510","OBJECT_NAME":"STARLINK-1780","CLASSIFICATION_TYPE":"U","OBJECT_ID":"2020-073Q","MEAN_ELEMENT_THEORY":"SGP4","RA_OF_ASC_NODE":"314.9913","LAUNCH_DATE":"2020-10-18","TLE_LINE2":"2 46684  53.0531 314.9913 0001651  52.4245 307.6894 15.06417767 77108","SEMIMAJOR_AXIS":"6925.294","DECAY_DATE":null,"ELEMENT_SET_NO":"999","TIME_SYSTEM":"UTC","BSTAR":"0.00130450000000","REV_AT_EPOCH":"7710","OBJECT_TYPE":"PAYLOAD","CENTER_NAME":"EARTH","INCLINATION":"53.0531","MEAN_MOTION_DOT":"0.00019212","FILE":"3354091","MEAN_MOTION":"15.06417767","TLE_LINE1":"1 46684U 20073Q   22069.87071508  .00019212  00000-0  13045-2 0  9995","RCS_SIZE":"LARGE","MEAN_MOTION_DDOT":"0.0000000000000","PERIOD":"95.591","EPOCH":"2022-03-10T20:53:49.782912","MEAN_ANOMALY":"307.6894","COUNTRY_CODE":"US","PERIAPSIS":"546.016","EPHEMERIS_TYPE":"0","NORAD_CAT_ID":"46684","APOAPSIS":"548.302","REF_FRAME":"TEME"},{"GP_ID":"198438821","SITE":"AFETR","OBJECT_NAME":"STARLINK-1781","ECCENTRICITY":"0.00017330","ARG_OF_PERICENTER":"57.9103","CLASSIFICATION_TYPE":"U","OBJECT_ID":"2020-073R","LAUNCH_DATE":"2020-10-18","RA_OF_ASC_NODE":"330.0580","MEAN_ELEMENT_THEORY":"SGP4","DECAY_DATE":null,"SEMIMAJOR_AXIS":"6925.361","TLE_LINE2":"2 46685  53.0568 330.0580 0001733  57.9103 302.2054 15.06395931 76883","REV_AT_EPOCH":"7688","BSTAR":"0.00014263000000","TIME_SYSTEM":"UTC","ELEMENT_SET_NO":"999","INCLINATION":"53.0568","CENTER_NAME":"EARTH","OBJECT_TYPE":"PAYLOAD","MEAN_MOTION_DOT":"0.00001843","EPOCH":"2022-03-10T20:38:34.429344","RCS_SIZE":"LARGE","PERIOD":"95.592","MEAN_MOTION_DDOT":"0.0000000000000","TLE_LINE1":"1 46685U 20073R   22069.86012071  .00001843  00000-0  14263-3 0  9990","MEAN_MOTION":"15.06395931","FILE":"3354091","COUNTRY_CODE":"US","MEAN_ANOMALY":"302.2054","PERIAPSIS":"546.026","APOAPSIS":"548.426","NORAD_CAT_ID":"46685","EPHEMERIS_TYPE":"0","REF_FRAME":"TEME"},{"RCS_SIZE":"LARGE","PERIOD":"95.592","MEAN_MOTION_DDOT":"0.0000000000000","EPOCH":"2022-03-10T21:47:34.896192","TLE_LINE1":"1 46686U 20073S   22069.90804278  .00009437  00000-0  65146-3 0  9997","MEAN_MOTION":"15.06406847","FILE":"3354091","COUNTRY_CODE":"US","MEAN_ANOMALY":"300.7627","PERIAPSIS":"545.974","APOAPSIS":"548.411","NORAD_CAT_ID":"46686","EPHEMERIS_TYPE":"0","REF_FRAME":"TEME","GP_ID":"198437577","SITE":"AFETR","OBJECT_NAME":"STARLINK-1783","ECCENTRICITY":"0.00017590","ARG_OF_PERICENTER":"59.3535","OBJECT_ID":"2020-073S","CLASSIFICATION_TYPE":"U","LAUNCH_DATE":"2020-10-18","RA_OF_ASC_NODE":"329.8333","MEAN_ELEMENT_THEORY":"SGP4","DECAY_DATE":null,"SEMIMAJOR_AXIS":"6925.328","TLE_LINE2":"2 46686  53.0548 329.8333 0001759  59.3535 300.7627 15.06406847 76896","REV_AT_EPOCH":"7689","BSTAR":"0.00065146000000","TIME_SYSTEM":"UTC","ELEMENT_SET_NO":"999","INCLINATION":"53.0548","CENTER_NAME":"EARTH","OBJECT_TYPE":"PAYLOAD","MEAN_MOTION_DOT":"0.00009437"}];
